{"type": "FeatureCollection", "features": [ {"type": "Feature", "properties": {"norad_id": 35602, "name": "COSMOS 2251 DEB", "group": "cosmos-2251-debris", "lat": 14.441075328939593, "lon": -11.997889131280527, "alt_km": 441.56829585924515, "timestamp": "2025-12-17T09:00:17.544163+00:00", "meta": {"OBJECT_NAME": "COSMOS 2251 DEB", "OBJECT_ID": "1993-036AMV", "EPOCH": "2025-12-16T12:05:04.490880", "MEAN_MOTION": 15.35217708, "ECCENTRICITY": 0.00894658, "INCLINATION": 73.9931, "RA_OF_ASC_NODE": 174.1162, "ARG_OF_PERICENTER": 239.0615, "MEAN_ANOMALY": 151.2508, "EPHEMERIS_TYPE": 0, "CLASSIFICATION_TYPE": "U", "NORAD_CAT_ID": 35602, "ELEMENT_SET_NO": 999, "REV_AT_EPOCH": 90149, "BSTAR": 0.00038226129, "MEAN_MOTION_DOT": 0.00014891, "MEAN_MOTION_DDOT": 0}, "tle": {"line1": "1 35602U 93036AMV 25350.50352420  .00014891  00000+0  38226-3 0  9999", "line2": "2 35602  73.9931 174.1162 0089465 239.0615 151.2508 15.35217708901494"}}, "geometry": {"type": "Point", "coordinates": [-11.997889131280527, 14.441075328939593]}}, {"type": "Feature", "properties": {"norad_id": 35605, "name": "COSMOS 2251 DEB", "group": "cosmos-2251-debris", "lat": -31.64615625298121, "lon": 156.8506085326081, "alt_km": 451.4049037185905, "timestamp": "2025-12-17T09:00:17.544173+00:00", "meta": {"OBJECT_NAME": "COSMOS 2251 DEB", "OBJECT_ID": "1993-036AMY", "EPOCH": "2025-12-16T05:30:02.725344", "MEAN_MOTION": 15.35586787, "ECCENTRICITY": 0.00242235, "INCLINATION": 73.8701, "RA_OF_ASC_NODE": 329.0606, "ARG_OF_PERICENTER": 257.5437, "MEAN_ANOMALY": 102.3057, "EPHEMERIS_TYPE": 0, "CLASSIFICATION_TYPE": "U", "NORAD_CAT_ID": 35605, "ELEMENT_SET_NO": 999, "REV_AT_EPOCH": 66025, "BSTAR": 0.0050760725, "MEAN_MOTION_DOT": 0.00181517, "MEAN_MOTION_DDOT": 0}, "tle": {"line1": "1 35605U 93036AMY 25350.22919821  .00181517  00000+0  50761-2 0  9992", "line2": "2 35605  73.8701 329.0606 0024223 257.5437 102.3057 15.35586787660251"}}, "geometry": {"type": "Point", "coordinates": [156.8506085326081, -31.64615625298121]}}, {"type": "Feature", "properties": {"norad_id": 35606, "name": "COSMOS 2251 DEB", "group": "cosmos-2251-debris", "lat": -71.32283397586228, "lon": -117.34271097243924, "alt_km": 891.9828495943557, "timestamp": "2025-12-17T09:00:17.544183+00:00", "meta": {"OBJECT_NAME": "COSMOS 2251 DEB", "OBJECT_ID": "1993-036AMZ", "EPOCH": "2025-12-15T07:23:01.893984", "MEAN_MOTION": 13.41214459, "ECCENTRICITY": 0.04573982, "INCLINATION": 73.8103, "RA_OF_ASC_NODE": 6.7036, "ARG_OF_PERICENTER": 212.0605, "MEAN_ANOMALY": 145.1917, "EPHEMERIS_TYPE": 0, "CLASSIFICATION_TYPE": "U", "NORAD_CAT_ID": 35606, "ELEMENT_SET_NO": 999, "REV_AT_EPOCH": 61074, "BSTAR": 0.00058042329, "MEAN_MOTION_DOT": 5.74e-06, "MEAN_MOTION_DDOT": 0}, "tle": {"line1": "1 35606U 93036AMZ 25349.30766081  .00000574  00000+0  58042-3 0  9992", "line2": "2 35606  73.8103   6.7036 0457398 212.0605 145.1917 13.41214459610748"}}, "geometry": {"type": "Point", "coordinates": [-117.34271097243924, -71.32283397586228]}}, {"type": "Feature", "properties": {"norad_id": 35611, "name": "COSMOS 2251 DEB", "group": "cosmos-2251-debris", "lat": 53.381007337686306, "lon": -167.05383118196718, "alt_km": 661.3299916358656, "timestamp": "2025-12-17T09:00:17.544193+00:00", "meta": {"OBJECT_NAME": "COSMOS 2251 DEB", "OBJECT_ID": "1993-036ANE", "EPOCH": "2025-12-14T22:03:55.318464", "MEAN_MOTION": 14.72918088, "ECCENTRICITY": 0.00215588, "INCLINATION": 74.0194, "RA_OF_ASC_NODE": 175.0515, "ARG_OF_PERICENTER": 247.96, "MEAN_ANOMALY": 111.9283, "EPHEMERIS_TYPE": 0, "CLASSIFICATION_TYPE": "U", "NORAD_CAT_ID": 35611, "ELEMENT_SET_NO": 999, "REV_AT_EPOCH": 87322, "BSTAR": 0.0014598859, "MEAN_MOTION_DOT": 9.374e-05, "MEAN_MOTION_DDOT": 0}, "tle": {"line1": "1 35611U 93036ANE 25348.91939026  .00009374  00000+0  14599-2 0  9990", "line2": "2 35611  74.0194 175.0515 0021558 247.9600 111.9283 14.72918088873221"}}, "geometry": {"type": "Point", "coordinates": [-167.05383118196718, 53.381007337686306]}}, {"type": "Feature", "properties": {"norad_id": 35614, "name": "COSMOS 2251 DEB", "group": "cosmos-2251-debris", "lat": 69.76556633213819, "lon": 9.78524116566582, "alt_km": 666.9063513278979, "timestamp": "2025-12-17T09:00:17.544203+00:00", "meta": {"OBJECT_NAME": "COSMOS 2251 DEB", "OBJECT_ID": "1993-036ANH", "EPOCH": "2025-12-16T14:38:48.350112", "MEAN_MOTION": 14.67049199, "ECCENTRICITY": 0.00754647, "INCLINATION": 73.9585, "RA_OF_ASC_NODE": 319.9565, "ARG_OF_PERICENTER": 173.4451, "MEAN_ANOMALY": 186.7725, "EPHEMERIS_TYPE": 0, "CLASSIFICATION_TYPE": "U", "NORAD_CAT_ID": 35614, "ELEMENT_SET_NO": 999, "REV_AT_EPOCH": 87786, "BSTAR": 0.00058013984, "MEAN_MOTION_DOT": 3.364e-05, "MEAN_MOTION_DDOT": 0}, "tle": {"line1": "1 35614U 93036ANH 25350.61028183  .00003364  00000+0  58014-3 0  9990", "line2": "2 35614  73.9585 319.9565 0075464 173.4451 186.7725 14.67049199877869"}}, "geometry": {"type": "Point", "coordinates": [9.78524116566582, 69.76556633213819]}}, {"type": "Feature", "properties": {"norad_id": 35645, "name": "COSMOS 2251 DEB", "group": "cosmos-2251-debris", "lat": 18.837813284134366, "lon": -106.58111882492045, "alt_km": 727.4118365361301, "timestamp": "2025-12-17T09:00:17.544213+00:00", "meta": {"OBJECT_NAME": "COSMOS 2251 DEB", "OBJECT_ID": "1993-036ANL", "EPOCH": "2025-12-16T22:17:39.917472", "MEAN_MOTION": 14.45645319, "ECCENTRICITY": 0.00697437, "INCLINATION": 73.9648, "RA_OF_ASC_NODE": 79.8852, "ARG_OF_PERICENTER": 237.172, "MEAN_ANOMALY": 122.271, "EPHEMERIS_TYPE": 0, "CLASSIFICATION_TYPE": "U", "NORAD_CAT_ID": 35645, "ELEMENT_SET_NO": 999, "REV_AT_EPOCH": 86832, "BSTAR": 0.0016093026, "MEAN_MOTION_DOT": 5.84e-05, "MEAN_MOTION_DDOT": 0}, "tle": {"line1": "1 35645U 93036ANL 25350.92893423  .00005840  00000+0  16093-2 0  9996", "line2": "2 35645  73.9648  79.8852 0069743 237.1720 122.2710 14.45645319868326"}}, "geometry": {"type": "Point", "coordinates": [-106.58111882492045, 18.837813284134366]}}, {"type": "Feature", "properties": {"norad_id": 35646, "name": "COSMOS 2251 DEB", "group": "cosmos-2251-debris", "lat": 42.7290159020785, "lon": -146.82716929130282, "alt_km": 785.5114654412746, "timestamp": "2025-12-17T09:00:17.544223+00:00", "meta": {"OBJECT_NAME": "COSMOS 2251 DEB", "OBJECT_ID": "1993-036ANM", "EPOCH": "2025-12-15T23:10:17.358816", "MEAN_MOTION": 13.40825911, "ECCENTRICITY": 0.04566629, "INCLINATION": 73.872, "RA_OF_ASC_NODE": 50.9103, "ARG_OF_PERICENTER": 160.5551, "MEAN_ANOMALY": 14.1916, "EPHEMERIS_TYPE": 0, "CLASSIFICATION_TYPE": "U", "NORAD_CAT_ID": 35646, "ELEMENT_SET_NO": 999, "REV_AT_EPOCH": 81901, "BSTAR": 0.00060262644, "MEAN_MOTION_DOT": 5.94e-06, "MEAN_MOTION_DDOT": 0}, "tle": {"line1": "1 35646U 93036ANM 25349.96547869  .00000594  00000+0  60263-3 0  9999", "line2": "2 35646  73.8720  50.9103 0456662 160.5551  14.1916 13.40825911819018"}}, "geometry": {"type": "Point", "coordinates": [-146.82716929130282, 42.7290159020785]}}, {"type": "Feature", "properties": {"norad_id": 35647, "name": "COSMOS 2251 DEB", "group": "cosmos-2251-debris", "lat": -18.656024401197193, "lon": 111.49282966123677, "alt_km": 783.6285457488248, "timestamp": "2025-12-17T09:00:17.544234+00:00", "meta": {"OBJECT_NAME": "COSMOS 2251 DEB", "OBJECT_ID": "1993-036ANN", "EPOCH": "2025-12-16T12:07:42.204576", "MEAN_MOTION": 14.43653976, "ECCENTRICITY": 0.00457493, "INCLINATION": 74.0235, "RA_OF_ASC_NODE": 287.5596, "ARG_OF_PERICENTER": 25.7805, "MEAN_ANOMALY": 334.5617, "EPHEMERIS_TYPE": 0, "CLASSIFICATION_TYPE": "U", "NORAD_CAT_ID": 35647, "ELEMENT_SET_NO": 999, "REV_AT_EPOCH": 67718, "BSTAR": 0.00059115508, "MEAN_MOTION_DOT": 2.005e-05, "MEAN_MOTION_DDOT": 0}, "tle": {"line1": "1 35647U 93036ANN 25350.50534959  .00002005  00000+0  59116-3 0  9992", "line2": "2 35647  74.0235 287.5596 0045749  25.7805 334.5617 14.43653976677182"}}, "geometry": {"type": "Point", "coordinates": [111.49282966123677, -18.656024401197193]}}, {"type": "Feature", "properties": {"norad_id": 35650, "name": "COSMOS 2251 DEB", "group": "cosmos-2251-debris", "lat": -39.66745589513519, "lon": -4.0240848190751475, "alt_km": 624.8506112855885, "timestamp": "2025-12-17T09:00:17.544244+00:00", "meta": {"OBJECT_NAME": "COSMOS 2251 DEB", "OBJECT_ID": "1993-036ANR", "EPOCH": "2025-12-16T19:24:13.595616", "MEAN_MOTION": 14.83730293, "ECCENTRICITY": 0.00147804, "INCLINATION": 74.0454, "RA_OF_ASC_NODE": 10.821, "ARG_OF_PERICENTER": 56.2176, "MEAN_ANOMALY": 116.6508, "EPHEMERIS_TYPE": 0, "CLASSIFICATION_TYPE": "U", "NORAD_CAT_ID": 35650, "ELEMENT_SET_NO": 999, "REV_AT_EPOCH": 87694, "BSTAR": 0.0012184013, "MEAN_MOTION_DOT": 0.00010078, "MEAN_MOTION_DDOT": 0}, "tle": {"line1": "1 35650U 93036ANR 25350.80849069  .00010078  00000+0  12184-2 0  9992", "line2": "2 35650  74.0454  10.8210 0014780  56.2176 116.6508 14.83730293876945"}}, "geometry": {"type": "Point", "coordinates": [-4.0240848190751475, -39.66745589513519]}}, {"type": "Feature", "properties": {"norad_id": 35660, "name": "COSMOS 2251 DEB", "group": "cosmos-2251-debris", "lat": 50.143601780472956, "lon": 144.57769640102944, "alt_km": 730.955582279069, "timestamp": "2025-12-17T09:00:17.544254+00:00", "meta": {"OBJECT_NAME": "COSMOS 2251 DEB", "OBJECT_ID": "1993-036APB", "EPOCH": "2025-12-15T02:38:46.156416", "MEAN_MOTION": 14.49937403, "ECCENTRICITY": 0.00182984, "INCLINATION": 74.0379, "RA_OF_ASC_NODE": 128.7781, "ARG_OF_PERICENTER": 277.071, "MEAN_ANOMALY": 198.1224, "EPHEMERIS_TYPE": 0, "CLASSIFICATION_TYPE": "U", "NORAD_CAT_ID": 35660, "ELEMENT_SET_NO": 999, "REV_AT_EPOCH": 65905, "BSTAR": 0.00040464315, "MEAN_MOTION_DOT": 1.541e-05, "MEAN_MOTION_DDOT": 0}, "tle": {"line1": "1 35660U 93036APB 25349.11025644  .00001541  00000+0  40464-3 0  9998", "line2": "2 35660  74.0379 128.7781 0018298 277.0710 198.1224 14.49937403659054"}}, "geometry": {"type": "Point", "coordinates": [144.57769640102944, 50.143601780472956]}}]}